{"fetched_at":"2026-07-24T07:06:46.318Z","source":"https://celestrak.org/NORAD/elements/gp.php?NAME=RADARSAT&FORMAT=JSON","constellation":"radarsat-2","records":[{"OBJECT_NAME":"RADARSAT-2","OBJECT_ID":"2007-061A","EPOCH":"2026-07-23T20:13:10.766208","CLASSIFICATION_TYPE":"U","MEAN_MOTION":14.29980909,"ECCENTRICITY":0.0001322,"INCLINATION":98.5795,"RA_OF_ASC_NODE":211.2521,"ARG_OF_PERICENTER":87.2851,"MEAN_ANOMALY":272.8483,"EPHEMERIS_TYPE":0,"NORAD_CAT_ID":32382,"ELEMENT_SET_NO":999,"REV_AT_EPOCH":97119,"BSTAR":0.000034921,"MEAN_MOTION_DOT":4.6e-7,"MEAN_MOTION_DDOT":0}]}
