RADARSAT-2              
1 32382U 07061A   26204.84248572  .00000046  00000+0  34921-4 0  9998
2 32382  98.5795 211.2521 0001322  87.2851 272.8483 14.29980909971198
